[{"OBJECT_NAME":"STARLINK-6082","OBJECT_ID":"2023-046T","EPOCH":"2026-03-09T05:28:29.720064","MEAN_MOTION":15.02535742,"ECCENTRICITY":9.704e-5,"INCLINATION":43.0013,"RA_OF_ASC_NODE":161.3659,"ARG_OF_PERICENTER":289.0965,"MEAN_ANOMALY":70.9773,"EPHEMERIS_TYPE":0,"CLASSIFICATION_TYPE":"U","NORAD_CAT_ID":56110,"ELEMENT_SET_NO":999,"REV_AT_EPOCH":16199,"BSTAR":4.0748386e-5,"MEAN_MOTION_DOT":3.47e-6,"MEAN_MOTION_DDOT":0},{"OBJECT_NAME":"PICO-02A021","OBJECT_ID":"2024-149BY","EPOCH":"2026-03-09T03:41:37.126752","MEAN_MOTION":15.02201963,"ECCENTRICITY":0.00041954,"INCLINATION":97.6823,"RA_OF_ASC_NODE":147.908,"ARG_OF_PERICENTER":9.5557,"MEAN_ANOMALY":350.5747,"EPHEMERIS_TYPE":0,"CLASSIFICATION_TYPE":"U","NORAD_CAT_ID":60538,"ELEMENT_SET_NO":999,"REV_AT_EPOCH":8471,"BSTAR":0.00064833457,"MEAN_MOTION_DOT":8.488e-5,"MEAN_MOTION_DDOT":0}]
