STARLINK-6082           
1 56110U 23046T   26068.22812176  .00000347  00000+0  40748-4 0  9999
2 56110  43.0013 161.3659 0000970 289.0965  70.9773 15.02535742161995
PICO-02A021             
1 60538U 24149BY  26068.15390193  .00008488  00000+0  64833-3 0  9999
2 60538  97.6823 147.9080 0004195   9.5557 350.5747 15.02201963 84718
